start=new Date('2022-11-09T00:00:00.000Z').valueOf();
sats=[{"TLE_LINE2":"2 52622  53.2174 346.9335 0001844  48.9274 311.1877 15.08837908 27078","INCLINATION":"53.2174","TLE_LINE1":"1 52622U 22052AA  22312.80498605  .00000006  00000-0  18460-4 0  9997","REV_AT_EPOCH":"2707","FILE":"3649076","GP_ID":"217203343","RCS_SIZE":"LARGE","SITE":"AFETR","OBJECT_NAME":"STARLINK-4008","CLASSIFICATION_TYPE":"U","EPOCH":"2022-11-08T19:19:10.794720","ARG_OF_PERICENTER":"48.9274","APOAPSIS":"541.027","OBJECT_ID":"2022-052AA","ELEMENT_SET_NO":"999","OBJECT_TYPE":"PAYLOAD","MEAN_ANOMALY":"311.1877","COUNTRY_CODE":"US","DECAY_DATE":null,"ECCENTRICITY":"0.00018440","REF_FRAME":"TEME","CENTER_NAME":"EARTH","MEAN_MOTION_DOT":"0.00000006","MEAN_MOTION":"15.08837908","LAUNCH_DATE":"2022-05-14","RA_OF_ASC_NODE":"346.9335","NORAD_CAT_ID":"52622","PERIAPSIS":"538.476","PERIOD":"95.438","EPHEMERIS_TYPE":"0","BSTAR":"0.00001846000000","MEAN_ELEMENT_THEORY":"SGP4","SEMIMAJOR_AXIS":"6917.887","TIME_SYSTEM":"UTC","MEAN_MOTION_DDOT":"0.0000000000000"},{"REV_AT_EPOCH":"2727","TLE_LINE1":"1 52623U 22052AB  22312.76771470  .00011109  00000-0  71431-3 0  9999","INCLINATION":"53.2155","FILE":"3649076","GP_ID":"217202602","TLE_LINE2":"2 52623  53.2155 332.1059 0002736  27.9266 332.1873 15.08874508 27275","ARG_OF_PERICENTER":"27.9266","APOAPSIS":"541.533","OBJECT_ID":"2022-052AB","OBJECT_TYPE":"PAYLOAD","ELEMENT_SET_NO":"999","RCS_SIZE":"LARGE","SITE":"AFETR","CLASSIFICATION_TYPE":"U","OBJECT_NAME":"STARLINK-3986","EPOCH":"2022-11-08T18:25:30.550080","REF_FRAME":"TEME","CENTER_NAME":"EARTH","MEAN_ANOMALY":"332.1873","DECAY_DATE":null,"ECCENTRICITY":"0.00027360","COUNTRY_CODE":"US","PERIOD":"95.435","EPHEMERIS_TYPE":"0","BSTAR":"0.00071431000000","MEAN_ELEMENT_THEORY":"SGP4","SEMIMAJOR_AXIS":"6917.775","TIME_SYSTEM":"UTC","MEAN_MOTION_DDOT":"0.0000000000000","MEAN_MOTION_DOT":"0.00011109","MEAN_MOTION":"15.08874508","LAUNCH_DATE":"2022-05-14","RA_OF_ASC_NODE":"332.1059","NORAD_CAT_ID":"52623","PERIAPSIS":"537.747"},{"TLE_LINE1":"1 52624U 22052AC  22312.84498752  .00009720  00000-0  62739-3 0  9995","INCLINATION":"53.2162","REV_AT_EPOCH":"2728","FILE":"3649076","GP_ID":"217203353","TLE_LINE2":"2 52624  53.2162 331.7580 0002670  27.4909 332.6224 15.08873843 27281","ELEMENT_SET_NO":"999","OBJECT_TYPE":"PAYLOAD","ARG_OF_PERICENTER":"27.4909","APOAPSIS":"541.489","OBJECT_ID":"2022-052AC","SITE":"AFETR","CLASSIFICATION_TYPE":"U","EPOCH":"2022-11-08T20:16:46.921728","OBJECT_NAME":"STARLINK-4009","RCS_SIZE":"LARGE","REF_FRAME":"TEME","CENTER_NAME":"EARTH","MEAN_ANOMALY":"332.6224","DECAY_DATE":null,"ECCENTRICITY":"0.00026700","COUNTRY_CODE":"US","TIME_SYSTEM":"UTC","SEMIMAJOR_AXIS":"6917.777","MEAN_MOTION_DDOT":"0.0000000000000","PERIOD":"95.435","EPHEMERIS_TYPE":"0","BSTAR":"0.00062739000000","MEAN_ELEMENT_THEORY":"SGP4","LAUNCH_DATE":"2022-05-14","RA_OF_ASC_NODE":"331.7580","NORAD_CAT_ID":"52624","PERIAPSIS":"537.795","MEAN_MOTION_DOT":"0.00009720","MEAN_MOTION":"15.08873843"},{"CLASSIFICATION_TYPE":"U","OBJECT_NAME":"STARLINK-3988","EPOCH":"2022-11-08T08:47:54.113856","SITE":"AFETR","RCS_SIZE":"LARGE","OBJECT_TYPE":"PAYLOAD","ELEMENT_SET_NO":"999","OBJECT_ID":"2022-052AD","APOAPSIS":"540.870","ARG_OF_PERICENTER":"56.1871","TLE_LINE2":"2 52625  53.2189 333.8937 0001719  56.1871 303.9285 15.08861056 27214","GP_ID":"217172817","FILE":"3648805","REV_AT_EPOCH":"2721","TLE_LINE1":"1 52625U 22052AD  22312.36659854  .00013964  00000-0  89321-3 0  9996","INCLINATION":"53.2189","PERIAPSIS":"538.492","NORAD_CAT_ID":"52625","RA_OF_ASC_NODE":"333.8937","LAUNCH_DATE":"2022-05-14","MEAN_MOTION":"15.08861056","MEAN_MOTION_DOT":"0.00013964","MEAN_MOTION_DDOT":"0.0000000000000","SEMIMAJOR_AXIS":"6917.816","TIME_SYSTEM":"UTC","MEAN_ELEMENT_THEORY":"SGP4","BSTAR":"0.00089321000000","EPHEMERIS_TYPE":"0","PERIOD":"95.436","DECAY_DATE":null,"ECCENTRICITY":"0.00017190","COUNTRY_CODE":"US","MEAN_ANOMALY":"303.9285","CENTER_NAME":"EARTH","REF_FRAME":"TEME"},{"RCS_SIZE":"LARGE","SITE":"AFETR","OBJECT_NAME":"STARLINK-3990","EPOCH":"2022-11-08T18:36:07.070976","CLASSIFICATION_TYPE":"U","ARG_OF_PERICENTER":"45.9659","APOAPSIS":"541.330","OBJECT_ID":"2022-052AE","OBJECT_TYPE":"PAYLOAD","ELEMENT_SET_NO":"999","TLE_LINE2":"2 52626  53.2194 332.0711 0002283  45.9659 314.1521 15.08838182 27276","REV_AT_EPOCH":"2727","TLE_LINE1":"1 52626U 22052AE  22312.77508184  .00000082  00000-0  23290-4 0  9992","INCLINATION":"53.2194","FILE":"3649076","GP_ID":"217203837","MEAN_MOTION_DOT":"0.00000082","MEAN_MOTION":"15.08838182","LAUNCH_DATE":"2022-05-14","RA_OF_ASC_NODE":"332.0711","NORAD_CAT_ID":"52626","PERIAPSIS":"538.172","PERIOD":"95.438","BSTAR":"0.00002329000000","EPHEMERIS_TYPE":"0","MEAN_ELEMENT_THEORY":"SGP4","SEMIMAJOR_AXIS":"6917.886","TIME_SYSTEM":"UTC","MEAN_MOTION_DDOT":"0.0000000000000","MEAN_ANOMALY":"314.1521","ECCENTRICITY":"0.00022830","DECAY_DATE":null,"COUNTRY_CODE":"US","REF_FRAME":"TEME","CENTER_NAME":"EARTH"},{"CENTER_NAME":"EARTH","REF_FRAME":"TEME","COUNTRY_CODE":"US","DECAY_DATE":null,"ECCENTRICITY":"0.00027840","MEAN_ANOMALY":"330.1199","MEAN_MOTION_DDOT":"0.0000000000000","TIME_SYSTEM":"UTC","SEMIMAJOR_AXIS":"6917.825","MEAN_ELEMENT_THEORY":"SGP4","BSTAR":"0.00032967000000","EPHEMERIS_TYPE":"0","PERIOD":"95.436","PERIAPSIS":"537.764","NORAD_CAT_ID":"52627","RA_OF_ASC_NODE":"332.1719","LAUNCH_DATE":"2022-05-14","MEAN_MOTION":"15.08858233","MEAN_MOTION_DOT":"0.00004965","GP_ID":"217202109","FILE":"3649076","INCLINATION":"53.2175","TLE_LINE1":"1 52627U 22052AF  22312.75298904  .00004965  00000-0  32967-3 0  9991","REV_AT_EPOCH":"2728","TLE_LINE2":"2 52627  53.2175 332.1719 0002784  29.9952 330.1199 15.08858233 27288","OBJECT_TYPE":"PAYLOAD","ELEMENT_SET_NO":"999","OBJECT_ID":"2022-052AF","APOAPSIS":"541.616","ARG_OF_PERICENTER":"29.9952","EPOCH":"2022-11-08T18:04:18.253056","OBJECT_NAME":"STARLINK-3992","CLASSIFICATION_TYPE":"U","SITE":"AFETR","RCS_SIZE":"LARGE"},{"MEAN_MOTION":"15.08883559","MEAN_MOTION_DOT":"0.00015337","PERIAPSIS":"538.110","NORAD_CAT_ID":"52628","RA_OF_ASC_NODE":"346.9557","LAUNCH_DATE":"2022-05-14","MEAN_ELEMENT_THEORY":"SGP4","BSTAR":"0.00097846000000","EPHEMERIS_TYPE":"0","PERIOD":"95.435","MEAN_MOTION_DDOT":"0.0000000000000","TIME_SYSTEM":"UTC","SEMIMAJOR_AXIS":"6917.747","DECAY_DATE":null,"COUNTRY_CODE":"US","ECCENTRICITY":"0.00021710","MEAN_ANOMALY":"324.0120","CENTER_NAME":"EARTH","REF_FRAME":"TEME","RCS_SIZE":"LARGE","OBJECT_NAME":"STARLINK-4001","EPOCH":"2022-11-08T19:13:51.674592","CLASSIFICATION_TYPE":"U","SITE":"AFETR","OBJECT_ID":"2022-052AG","APOAPSIS":"541.114","ARG_OF_PERICENTER":"36.1018","OBJECT_TYPE":"PAYLOAD","ELEMENT_SET_NO":"999","TLE_LINE2":"2 52628  53.2178 346.9557 0002171  36.1018 324.0120 15.08883559 27070","GP_ID":"217202860","FILE":"3649076","TLE_LINE1":"1 52628U 22052AG  22312.80129253  .00015337  00000-0  97846-3 0  9990","REV_AT_EPOCH":"2707","INCLINATION":"53.2178"},{"MEAN_MOTION_DDOT":"0.0000000000000","TIME_SYSTEM":"UTC","SEMIMAJOR_AXIS":"6917.808","MEAN_ELEMENT_THEORY":"SGP4","EPHEMERIS_TYPE":"0","BSTAR":"0.00034393000000","PERIOD":"95.436","PERIAPSIS":"537.926","NORAD_CAT_ID":"52629","RA_OF_ASC_NODE":"332.1840","LAUNCH_DATE":"2022-05-14","MEAN_MOTION":"15.08863609","MEAN_MOTION_DOT":"0.00005193","CENTER_NAME":"EARTH","REF_FRAME":"TEME","DECAY_DATE":null,"COUNTRY_CODE":"US","ECCENTRICITY":"0.00025260","MEAN_ANOMALY":"323.8007","ELEMENT_SET_NO":"999","OBJECT_TYPE":"PAYLOAD","OBJECT_ID":"2022-052AH","APOAPSIS":"541.421","ARG_OF_PERICENTER":"36.3156","EPOCH":"2022-11-08T17:59:00.851424","OBJECT_NAME":"STARLINK-4022","CLASSIFICATION_TYPE":"U","SITE":"AFETR","RCS_SIZE":"LARGE","GP_ID":"217203604","FILE":"3649076","INCLINATION":"53.2196","TLE_LINE1":"1 52629U 22052AH  22312.74931541  .00005193  00000-0  34393-3 0  9992","REV_AT_EPOCH":"2727","TLE_LINE2":"2 52629  53.2196 332.1840 0002526  36.3156 323.8007 15.08863609 27279"},{"MEAN_ELEMENT_THEORY":"SGP4","EPHEMERIS_TYPE":"0","BSTAR":"-0.00013631000000","PERIOD":"95.437","MEAN_MOTION_DDOT":"0.0000000000000","SEMIMAJOR_AXIS":"6917.868","TIME_SYSTEM":"UTC","MEAN_MOTION":"15.08843933","MEAN_MOTION_DOT":"-0.00002458","PERIAPSIS":"537.845","NORAD_CAT_ID":"52630","RA_OF_ASC_NODE":"332.1359","LAUNCH_DATE":"2022-05-14","CENTER_NAME":"EARTH","REF_FRAME":"TEME","COUNTRY_CODE":"US","DECAY_DATE":null,"ECCENTRICITY":"0.00027300","MEAN_ANOMALY":"335.8846","OBJECT_ID":"2022-052AJ","APOAPSIS":"541.622","ARG_OF_PERICENTER":"24.2274","ELEMENT_SET_NO":"999","OBJECT_TYPE":"PAYLOAD","RCS_SIZE":"LARGE","CLASSIFICATION_TYPE":"U","OBJECT_NAME":"STARLINK-3989","EPOCH":"2022-11-08T18:14:53.935008","SITE":"AFETR","GP_ID":"217203845","FILE":"3649076","TLE_LINE1":"1 52630U 22052AJ  22312.76034647 -.00002458  00000-0 -13631-3 0  9992","INCLINATION":"53.2184","REV_AT_EPOCH":"2727","TLE_LINE2":"2 52630  53.2184 332.1359 0002730  24.2274 335.8846 15.08843933 27279"},{"DECAY_DATE":null,"ECCENTRICITY":"0.00026090","COUNTRY_CODE":"US","MEAN_ANOMALY":"326.4436","REF_FRAME":"TEME","CENTER_NAME":"EARTH","RA_OF_ASC_NODE":"333.0912","LAUNCH_DATE":"2022-05-14","PERIAPSIS":"537.870","NORAD_CAT_ID":"52631","MEAN_MOTION":"15.08863178","MEAN_MOTION_DOT":"0.00006288","TIME_SYSTEM":"UTC","SEMIMAJOR_AXIS":"6917.810","MEAN_MOTION_DDOT":"0.0000000000000","BSTAR":"0.00041256000000","EPHEMERIS_TYPE":"0","PERIOD":"95.436","MEAN_ELEMENT_THEORY":"SGP4","TLE_LINE2":"2 52631  53.2189 333.0912 0002609  33.6722 326.4436 15.08863178 27259","FILE":"3649076","TLE_LINE1":"1 52631U 22052AK  22312.54691702  .00006288  00000-0  41256-3 0  9997","INCLINATION":"53.2189","REV_AT_EPOCH":"2725","GP_ID":"217202603","OBJECT_NAME":"STARLINK-3794","EPOCH":"2022-11-08T13:07:33.630528","CLASSIFICATION_TYPE":"U","SITE":"AFETR","RCS_SIZE":"LARGE","OBJECT_TYPE":"PAYLOAD","ELEMENT_SET_NO":"999","ARG_OF_PERICENTER":"33.6722","OBJECT_ID":"2022-052AK","APOAPSIS":"541.479"}];
